{
  "type": "FeatureCollection",
  "features": [
    {
      "type": "Feature",
      "properties": {
        "norad_id": 22490,
        "name": "SCD 1",
        "group": "resource",
        "lat": 23.724452947138786,
        "lon": -94.57298363364396,
        "alt_km": 709.0188518487857,
        "timestamp": "2025-12-26T08:37:54.226261+00:00",
        "meta_object_name": "SCD 1",
        "meta_object_id": "1993-009B",
        "meta_epoch": "2025-12-25T16:00:22.325184",
        "meta_mean_motion": 14.46007346,
        "meta_eccentricity": 0.0042177,
        "meta_inclination": 24.9675,
        "meta_ra_of_asc_node": 198.8837,
        "meta_arg_of_pericenter": 101.5468,
        "meta_mean_anomaly": 317.8225,
        "meta_ephemeris_type": 0,
        "meta_classification_type": "U",
        "meta_norad_cat_id": 22490,
        "meta_element_set_no": 999,
        "meta_rev_at_epoch": 73597,
        "meta_bstar": 8.5981e-05,
        "meta_mean_motion_dot": 5e-06,
        "meta_mean_motion_ddot": 0,
        "tle_line1": "1 22490U 93009B   25359.66692506  .00000500  00000+0  85981-4 0  9991",
        "tle_line2": "2 22490  24.9675 198.8837 0042177 101.5468 317.8225 14.46007346735976"
      },
      "geometry": {
        "type": "Point",
        "coordinates": [
          -94.57298363364396,
          23.724452947138786
        ]
      }
    },
    {
      "type": "Feature",
      "properties": {
        "norad_id": 25397,
        "name": "TECHSAT 1B (GO-32)",
        "group": "resource",
        "lat": 49.43769608345078,
        "lon": 174.54900059653244,
        "alt_km": 806.1506509338078,
        "timestamp": "2025-12-26T08:37:54.226288+00:00",
        "meta_object_name": "TECHSAT 1B (GO-32)",
        "meta_object_id": "1998-043D",
        "meta_epoch": "2025-12-25T21:54:35.731584",
        "meta_mean_motion": 14.24380587,
        "meta_eccentricity": 0.0001626,
        "meta_inclination": 98.9934,
        "meta_ra_of_asc_node": 343.4298,
        "meta_arg_of_pericenter": 35.4202,
        "meta_mean_anomaly": 324.7083,
        "meta_ephemeris_type": 0,
        "meta_classification_type": "U",
        "meta_norad_cat_id": 25397,
        "meta_element_set_no": 999,
        "meta_rev_at_epoch": 42666,
        "meta_bstar": 5.7042e-05,
        "meta_mean_motion_dot": 8.5e-07,
        "meta_mean_motion_ddot": 0,
        "tle_line1": "1 25397U 98043D   25359.91291356  .00000085  00000+0  57042-4 0  9994",
        "tle_line2": "2 25397  98.9934 343.4298 0001626  35.4202 324.7083 14.24380587426667"
      },
      "geometry": {
        "type": "Point",
        "coordinates": [
          174.54900059653244,
          49.43769608345078
        ]
      }
    },
    {
      "type": "Feature",
      "properties": {
        "norad_id": 25504,
        "name": "SCD 2",
        "group": "resource",
        "lat": 24.22297120167261,
        "lon": 132.8529552597217,
        "alt_km": 723.669022210106,
        "timestamp": "2025-12-26T08:37:54.226306+00:00",
        "meta_object_name": "SCD 2",
        "meta_object_id": "1998-060A",
        "meta_epoch": "2025-12-25T12:59:50.528256",
        "meta_mean_motion": 14.45430101,
        "meta_eccentricity": 0.0017068,
        "meta_inclination": 24.9956,
        "meta_ra_of_asc_node": 62.9589,
        "meta_arg_of_pericenter": 88.2247,
        "meta_mean_anomaly": 42.4879,
        "meta_ephemeris_type": 0,
        "meta_classification_type": "U",
        "meta_norad_cat_id": 25504,
        "meta_element_set_no": 999,
        "meta_rev_at_epoch": 43517,
        "meta_bstar": 7.5618e-05,
        "meta_mean_motion_dot": 4.53e-06,
        "meta_mean_motion_ddot": 0,
        "tle_line1": "1 25504U 98060A   25359.54155704  .00000453  00000+0  75618-4 0  9996",
        "tle_line2": "2 25504  24.9956  62.9589 0017068  88.2247  42.4879 14.45430101435172"
      },
      "geometry": {
        "type": "Point",
        "coordinates": [
          132.8529552597217,
          24.22297120167261
        ]
      }
    },
    {
      "type": "Feature",
      "properties": {
        "norad_id": 25757,
        "name": "DLR-TUBSAT",
        "group": "resource",
        "lat": -78.37117811115628,
        "lon": 33.04912808265229,
        "alt_km": 731.270141272701,
        "timestamp": "2025-12-26T08:37:54.226324+00:00",
        "meta_object_name": "DLR-TUBSAT",
        "meta_object_id": "1999-029B",
        "meta_epoch": "2025-12-17T13:22:10.787520",
        "meta_mean_motion": 14.52359578,
        "meta_eccentricity": 0.00141996,
        "meta_inclination": 98.6566,
        "meta_ra_of_asc_node": 336.2196,
        "meta_arg_of_pericenter": 177.8976,
        "meta_mean_anomaly": 182.2281,
        "meta_ephemeris_type": 0,
        "meta_classification_type": "U",
        "meta_norad_cat_id": 25757,
        "meta_element_set_no": 999,
        "meta_rev_at_epoch": 40688,
        "meta_bstar": 3.7650132e-05,
        "meta_mean_motion_dot": 1.05e-06,
        "meta_mean_motion_ddot": 0,
        "tle_line1": "1 25757U 99029B   25351.55706930  .00000105  00000+0  37650-4 0  9996",
        "tle_line2": "2 25757  98.6566 336.2196 0014199 177.8976 182.2281 14.52359578406886"
      },
      "geometry": {
        "type": "Point",
        "coordinates": [
          33.04912808265229,
          -78.37117811115628
        ]
      }
    },
    {
      "type": "Feature",
      "properties": {
        "norad_id": 25994,
        "name": "TERRA",
        "group": "resource",
        "lat": 38.14287100405895,
        "lon": 45.22404116775154,
        "alt_km": 685.2923504837399,
        "timestamp": "2025-12-26T08:37:54.226337+00:00",
        "meta_object_name": "TERRA",
        "meta_object_id": "1999-068A",
        "meta_epoch": "2025-12-26T03:48:06.533280",
        "meta_mean_motion": 14.60916328,
        "meta_eccentricity": 0.0003393,
        "meta_inclination": 97.973,
        "meta_ra_of_asc_node": 51.3492,
        "meta_arg_of_pericenter": 67.7097,
        "meta_mean_anomaly": 353.1976,
        "meta_ephemeris_type": 0,
        "meta_classification_type": "U",
        "meta_norad_cat_id": 25994,
        "meta_element_set_no": 999,
        "meta_rev_at_epoch": 38434,
        "meta_bstar": 0.00010137,
        "meta_mean_motion_dot": 4.52e-06,
        "meta_mean_motion_ddot": 0,
        "tle_line1": "1 25994U 99068A   25360.15840895  .00000452  00000+0  10137-3 0  9992",
        "tle_line2": "2 25994  97.9730  51.3492 0003393  67.7097 353.1976 14.60916328384340"
      },
      "geometry": {
        "type": "Point",
        "coordinates": [
          45.22404116775154,
          38.14287100405895
        ]
      }
    },
    {
      "type": "Feature",
      "properties": {
        "norad_id": 27004,
        "name": "MAROC-TUBSAT",
        "group": "resource",
        "lat": -80.19035260486801,
        "lon": -103.83265660148997,
        "alt_km": 996.1235509964035,
        "timestamp": "2025-12-26T08:37:54.226349+00:00",
        "meta_object_name": "MAROC-TUBSAT",
        "meta_object_id": "2001-056D",
        "meta_epoch": "2025-12-25T23:08:45.257280",
        "meta_mean_motion": 13.70253529,
        "meta_eccentricity": 0.00192975,
        "meta_inclination": 99.7917,
        "meta_ra_of_asc_node": 168.6412,
        "meta_arg_of_pericenter": 225.0784,
        "meta_mean_anomaly": 256.5669,
        "meta_ephemeris_type": 0,
        "meta_classification_type": "U",
        "meta_norad_cat_id": 27004,
        "meta_element_set_no": 999,
        "meta_rev_at_epoch": 20246,
        "meta_bstar": 2.8065745e-05,
        "meta_mean_motion_dot": -2.2e-07,
        "meta_mean_motion_ddot": 0,
        "tle_line1": "1 27004U 01056D   25359.96441270 -.00000022  00000+0  28066-4 0  9992",
        "tle_line2": "2 27004  99.7917 168.6412 0019297 225.0784 256.5669 13.70253529202461"
      },
      "geometry": {
        "type": "Point",
        "coordinates": [
          -103.83265660148997,
          -80.19035260486801
        ]
      }
    },
    {
      "type": "Feature",
      "properties": {
        "norad_id": 27424,
        "name": "AQUA",
        "group": "resource",
        "lat": -41.2475476777203,
        "lon": -31.088517001059525,
        "alt_km": 695.0226370523178,
        "timestamp": "2025-12-26T08:37:54.226360+00:00",
        "meta_object_name": "AQUA",
        "meta_object_id": "2002-022A",
        "meta_epoch": "2025-12-24T19:18:33.414624",
        "meta_mean_motion": 14.61757572,
        "meta_eccentricity": 0.00018094,
        "meta_inclination": 98.4055,
        "meta_ra_of_asc_node": 319.881,
        "meta_arg_of_pericenter": 102.1365,
        "meta_mean_anomaly": 317.5475,
        "meta_ephemeris_type": 0,
        "meta_classification_type": "U",
        "meta_norad_cat_id": 27424,
        "meta_element_set_no": 999,
        "meta_rev_at_epoch": 25779,
        "meta_bstar": 0.00019560508,
        "meta_mean_motion_dot": 9.26e-06,
        "meta_mean_motion_ddot": 0,
        "tle_line1": "1 27424U 02022A   25358.80455341  .00000926  00000+0  19561-3 0  9999",
        "tle_line2": "2 27424  98.4055 319.8810 0001809 102.1365 317.5475 14.61757572257795"
      },
      "geometry": {
        "type": "Point",
        "coordinates": [
          -31.088517001059525,
          -41.2475476777203
        ]
      }
    }
  ]
}